#aV2016  4 12  0  0  0.00000000     288 DD+AD WGS84 FIT  NGA
## 1892 172800.00000000   300.00000000 57490 0.0000000000000
+   31     1  2  3  5  6  7  8  9 10 11 12 13 14 15 16 17 18
+         19 20 21 22 23 24 25 26 27 28 29 30 31 32  0  0  0
+          0  0  0  0  0  0  0  0  0  0  0  0  0  0  0  0  0
+          0  0  0  0  0  0  0  0  0  0  0  0  0  0  0  0  0
+          0  0  0  0  0  0  0  0  0  0  0  0  0  0  0  0  0
++         2  2  2  2  2  2  2  2  2  2  2  2  2  2  2  2  2
++         2  2  2  2  2  2  2  2  2  2  2  2  2  2  0  0  0
++         0  0  0  0  0  0  0  0  0  0  0  0  0  0  0  0  0
++         0  0  0  0  0  0  0  0  0  0  0  0  0  0  0  0  0
++         0  0  0  0  0  0  0  0  0  0  0  0  0  0  0  0  0
%c cc cc ccc ccc cccc cccc cccc cccc ccccc ccccc ccccc ccccc
%c cc cc ccc ccc cccc cccc cccc cccc ccccc ccccc ccccc ccccc
%f  0.0000000  0.000000000  0.00000000000  0.000000000000000
%f  0.0000000  0.000000000  0.00000000000  0.000000000000000
%i    0    0    0    0      0      0      0      0         0
%i    0    0    0    0      0      0      0      0         0
/*      NGA, ST. LOUIS,MO.                                  
/*   EPHEMERIS COMPUTED FROM 2 DAYS OF DATA                 
/*   EPOCHA v2.4 SMOOTHER                                   
/*   G1762 IERS2010 SATAF SATAPC                            
*  2016  4 12 15 20  0.00000000
P  1 -21330.587266 -11857.128216  10682.301072     17.123237                    
V  1  -7689.357177 -11427.919186 -27619.069147      0.011443                    
P  2  12576.330504  21828.060211   9464.363190    597.397538                    
V  2  -9955.045577  -5996.354894  27969.261072     -0.017986                    
P  3 -15035.821059  -2824.120634  21717.397193    -46.705778                    
V  3   7645.677023 -26486.672623   1840.672972     -0.041060                    
P  5   5082.061255  21367.304801 -14862.407920   -129.558152                    
V  5  -7522.152494  17484.544236  22860.981100      0.031997                    
P  6   -857.007178  18376.125933  19171.555305    174.662886                    
V  6 -17739.419205 -16668.122813  15194.304467      0.056765                    
P  7 -16597.777677   2778.973205 -20510.750226    460.477560                    
V  7 -17083.938216 -19912.341439  10665.678312     -0.019830                    
P  8 -18497.647119  -7828.590035 -17339.606029    -31.104290                    
V  8  21050.638956  -6956.431391 -19222.414404     -0.014671                    
P  9 -25289.623872   7862.783453  -2137.173501    108.502213                    
V  9  -3329.295488  -2221.508927  31474.292979      0.074584                    
P 10  10760.795252 -23650.751904  -5327.989409      3.777915                    
V 10    813.063894   7317.337481 -30802.668771     -0.096719                    
P 11 -24226.688775 -10874.678898    675.016449   -640.479245                    
V 11    706.495903  -4988.293688 -30209.149600     -0.014442                    
P 12  12722.519500   7335.659546  22019.936567    376.039858                    
V 12  -9442.746543  26533.537911  -3151.281188      0.014006                    
P 13  10348.540327  13024.944061 -20818.007486    -10.395390                    
V 13 -25814.717753   4054.164096 -10449.753240     -0.027179                    
P 14  13642.160934 -14622.851295  17656.859550     -7.947757                    
V 14  21946.330312  -1920.158086 -18970.149367     -0.021367                    
P 15  21756.406712   4881.261180 -14806.706367   -306.128576                    
V 15 -17016.880439   7739.134394 -22295.928817     -0.017338                    
P 16  -2456.760259 -21615.398462 -15054.305445    -25.103505                    
V 16   8145.628317 -17287.093242  24022.657800      0.027791                    
P 17 -15808.982014  14200.407792  16143.732129   -203.045045                    
V 17 -19875.912154   2215.897036 -22041.752231     -0.003201                    
P 18  15403.935223 -15204.837674 -14684.241487    503.894467                    
V 18  -1963.495870  19943.082169 -22182.369327      0.041623                    
P 19  -6079.278303  15171.826614  20782.102481   -525.606385                    
V 19 -26615.048940   3223.718018  -9654.550369     -0.000633                    
P 20  14791.318560   6839.417819 -21120.890597    405.501507                    
V 20  -5924.227363  25952.606177   4334.576694      0.024632                    
P 21  14431.610531  -6925.947961 -20483.103651   -518.774830                    
V 21  19189.697203  20126.114111   6226.564183     -0.014909                    
P 22 -11090.982114 -14916.890944  19177.384108    363.989727                    
V 22   7796.722656 -22782.590739 -13536.504016     -0.073236                    
P 23 -25541.355983     95.944224   8253.989018   -169.055965                    
V 23   9221.299728  -4954.707185  28802.176172     -0.017245                    
P 24  21455.272206  13862.447956   7575.399486    -15.387097                    
V 24   4813.519242   8839.633225 -29391.324131     -0.005358                    
P 25  15963.620564  -6308.185612  20094.070733   -151.727738                    
V 25  -6339.599341  25016.147129  13002.741328     -0.070739                    
P 26   3567.768358 -25761.140227  -5272.758910   -327.792766                    
V 26   4523.120964  -5672.515249  30836.231805     -0.136358                    
P 27  -7984.745461 -13264.435995 -21625.654640     81.476084                    
V 27  26465.641495  -6884.496369  -5394.690877      0.038856                    
P 28 -12401.394659  22660.283939  -5434.919859    515.684489                    
V 28    882.132570  -7907.904007 -31421.383238      0.026523                    
P 29  26177.842082  -4251.252283    839.387282    656.847581                    
V 29   -606.683551   2498.784773  32116.912126      0.002289                    
P 30  -9343.509259  12615.241709 -21424.983505    115.969560                    
V 30 -17740.247663 -20653.619348  -4515.774728      0.035355                    
P 31   -933.661450 -19488.778508  17954.076737    274.077342                    
V 31  16298.570421  15881.815983  18545.916247     -0.017647                    
P 32  13131.980718 -15557.243858  17056.738163      6.093883                    
V 32  21446.363955  -3499.055409 -19712.565907     -0.029539                    
EOF
